IRIDIUM 7               
1 24793U 97020B   25027.47525202  .00000758  00000+0  25566-3 0  9992
2 24793  86.3933 235.8289 0001806  94.8363 265.3040 14.35733923451701
IRIDIUM 5               
1 24795U 97020D   25027.39901124  .00008303  00000+0  72100-3 0  9996
2 24795  86.3947 148.5435 0111441 283.2576  75.6241 14.92141822464453
IRIDIUM 4               
1 24796U 97020E   25027.47778774  .00000740  00000+0  24512-3 0  9990
2 24796  86.3932 232.7965 0001851  87.9472 272.1937 14.36643919452263
IRIDIUM 914             
1 24836U 97030A   25027.10791562  .00000873  00000+0  26787-3 0  9999
2 24836  86.3907 241.9826 0001805  35.2969 324.8350 14.40622565586816
IRIDIUM 16              
1 24841U 97030F   25027.20474924  .00000826  00000+0  26415-3 0  9992
2 24841  86.4005 264.5097 0003156 129.3976 230.7502 14.38486379446735
IRIDIUM 911             
1 24842U 97030G   25027.16331940  .00001103  00000+0  29567-3 0  9998
2 24842  86.4429 263.4420 0013167 200.8376 159.2292 14.47325449454680
IRIDIUM 17              
1 24870U 97034B   25027.24419436  .00000974  00000+0  31816-3 0  9994
2 24870  86.3961 294.0538 0003614  97.9278 262.2330 14.37600608443333
IRIDIUM 920             
1 24871U 97034C   25027.23244683  .00000867  00000+0  26205-3 0  9991
2 24871  86.3952 273.5953 0011259 177.0036 183.1233 14.41305023446270
